*******************************************************************************
Ephemeris / WWW_USER Mon Mar 10 06:51:04 2025 Pasadena, USA      / Horizons    
*******************************************************************************
Target body name: (2018 WV1)                      {source: JPL#17}
Center body name: Earth (399)                     {source: DE441}
Center-site name: Mauna Kea
*******************************************************************************
Start time      : A.D. 2018-Dec-31 04:03:00.0000 UT      
Stop  time      : A.D. 2018-Dec-31 16:46:00.0000 UT      
Step-size       : 1 minutes
*******************************************************************************
Target pole/equ : undefined
Target radii    : undefined                                                    
Center geodetic : 204.5278, 19.8260847, 4.21024   {E-lon(deg),Lat(deg),Alt(km)}
Center cylindric: 204.5278, 6006.35451, 2151.0229 {E-lon(deg),Dxy(km),Dz(km)}
Center pole/equ : ITRF93                          {East-longitude positive}
Center radii    : 6378.137, 6378.137, 6356.752 km {Equator_a, b, pole_c}       
Target primary  : Sun
Vis. interferer : MOON (R_eq= 1737.400) km        {source: DE441}
Rel. light bend : Sun                             {source: DE441}
Rel. lght bnd GM: 1.3271E+11 km^3/s^2                                          
Small-body perts: Yes                             {source: SB441-N16}
Atmos refraction: NO (AIRLESS)
RA format       : HMS
Time format     : CAL 
Calendar mode   : Mixed Julian/Gregorian
RTS-only print  : NO       
EOP file        : eop.250307.p250603                                           
EOP coverage    : DATA-BASED 1962-JAN-20 TO 2025-MAR-07. PREDICTS-> 2025-JUN-02
Units conversion: 1 au= 149597870.700 km, c= 299792.458 km/s, 1 day= 86400.0 s 
Table cut-offs 1: Elevation (-90.0deg=NO ),Airmass (>38.000=NO), Daylight (YES)
Table cut-offs 2: Solar elongation (  0.0,180.0=NO ),Local Hour Angle( 0.0=NO )
Table cut-offs 3: RA/DEC angular rate (     0.0=NO )                           
*******************************************************************************
Initial IAU76/J2000 heliocentric ecliptic osculating elements (au, days, deg.):
  EPOCH=  2458458.5 ! 2018-Dec-06.00 (TDB)         Residual RMS= .12928        
   EC= .06869100257422787  QR= .9715505345748198   TP= 2458416.866413563       
   OM= 248.5061090469913   W=  141.3742304527303   IN= 1.905403987972275       
  Equivalent ICRF heliocentric cartesian coordinates (au, au/d):
   X= 2.787163119783287E-01  Y= 8.719775267121872E-01  Z= 3.748421051204766E-01
  VX=-1.676682657337402E-02 VY= 5.516972965834891E-03 VZ= 1.749720915605096E-03
Asteroid physical parameters (km, seconds, rotational period in hours):        
   GM= n.a.                RAD= n.a.               ROTPER= n.a.                
   H= 30.3                 G= .150                 B-V= n.a.                   
                           ALBEDO= n.a.            STYP= n.a.                  
*******************************************************************************
 Date__(UT)__HR:MN     R.A._________(ICRF)_________DEC
******************************************************
$$SOE
 2018-Dec-31 16:21 Nm  05 57 20.763559 -05 31 34.89322
 2018-Dec-31 16:22 Nm  05 57 20.773593 -05 31 34.20331
 2018-Dec-31 16:23 Nm  05 57 20.783949 -05 31 33.51348
 2018-Dec-31 16:24 Nm  05 57 20.794625 -05 31 32.82373
 2018-Dec-31 16:25 Nm  05 57 20.805622 -05 31 32.13406
 2018-Dec-31 16:26 Nm  05 57 20.816938 -05 31 31.44448
 2018-Dec-31 16:27 Nm  05 57 20.828575 -05 31 30.75499
 2018-Dec-31 16:28 Nm  05 57 20.840531 -05 31 30.06559
 2018-Dec-31 16:29 Nm  05 57 20.852806 -05 31 29.37629
 2018-Dec-31 16:30 Nm  05 57 20.865401 -05 31 28.68707
 2018-Dec-31 16:31 Nm  05 57 20.878313 -05 31 27.99796
 2018-Dec-31 16:32 Nm  05 57 20.891544 -05 31 27.30894
 2018-Dec-31 16:33 Cm  05 57 20.905093 -05 31 26.62002
 2018-Dec-31 16:34 Cm  05 57 20.918959 -05 31 25.93121
 2018-Dec-31 16:35 Cm  05 57 20.933143 -05 31 25.24250
 2018-Dec-31 16:36 Cm  05 57 20.947643 -05 31 24.55390
 2018-Dec-31 16:37 Cm  05 57 20.962459 -05 31 23.86540
 2018-Dec-31 16:38 Cm  05 57 20.977592 -05 31 23.17702
 2018-Dec-31 16:39 Cm  05 57 20.993040 -05 31 22.48875
 2018-Dec-31 16:40 Cm  05 57 21.008803 -05 31 21.80059
 2018-Dec-31 16:41 Cm  05 57 21.024882 -05 31 21.11255
 2018-Dec-31 16:42 Cm  05 57 21.041274 -05 31 20.42463
 2018-Dec-31 16:43 Cm  05 57 21.057981 -05 31 19.73682
 2018-Dec-31 16:44 Cm  05 57 21.075002 -05 31 19.04914
 2018-Dec-31 16:45 Cm  05 57 21.092335 -05 31 18.36159
 2018-Dec-31 16:46 Cm  05 57 21.109982 -05 31 17.67416
